{
  "type": "FeatureCollection",
  "features": [
    {
      "type": "Feature",
      "properties": {
        "norad_id": 35434,
        "name": "COSMOS 2251 DEB",
        "group": "cosmos-2251-debris",
        "lat": -63.54790387722932,
        "lon": 54.91430723190958,
        "alt_km": 753.8806436500163,
        "timestamp": "2025-12-20T09:36:02.045189+00:00",
        "meta_object_name": "COSMOS 2251 DEB",
        "meta_object_id": "1993-036AKC",
        "meta_epoch": "2025-12-13T21:29:58.278624",
        "meta_mean_motion": 14.25692247,
        "meta_eccentricity": 0.00874643,
        "meta_inclination": 74.0404,
        "meta_ra_of_asc_node": 211.5388,
        "meta_arg_of_pericenter": 282.0357,
        "meta_mean_anomaly": 77.0999,
        "meta_ephemeris_type": 0,
        "meta_classification_type": "U",
        "meta_norad_cat_id": 35434,
        "meta_element_set_no": 999,
        "meta_rev_at_epoch": 86134,
        "meta_bstar": 0.00076141319,
        "meta_mean_motion_dot": 1.854e-05,
        "meta_mean_motion_ddot": 0,
        "tle_line1": "1 35434U 93036AKC 25347.89581341  .00001854  00000+0  76141-3 0  9999",
        "tle_line2": "2 35434  74.0404 211.5388 0087464 282.0357  77.0999 14.25692247861349"
      },
      "geometry": {
        "type": "Point",
        "coordinates": [
          54.91430723190958,
          -63.54790387722932
        ]
      }
    },
    {
      "type": "Feature",
      "properties": {
        "norad_id": 35435,
        "name": "COSMOS 2251 DEB",
        "group": "cosmos-2251-debris",
        "lat": 71.73820004261157,
        "lon": -151.34685992227483,
        "alt_km": 625.8099992312509,
        "timestamp": "2025-12-20T09:36:02.045199+00:00",
        "meta_object_name": "COSMOS 2251 DEB",
        "meta_object_id": "1993-036AKD",
        "meta_epoch": "2025-12-18T13:24:14.493312",
        "meta_mean_motion": 14.78644291,
        "meta_eccentricity": 0.00073996,
        "meta_inclination": 74.0108,
        "meta_ra_of_asc_node": 92.6132,
        "meta_arg_of_pericenter": 188.8212,
        "meta_mean_anomaly": 191.4596,
        "meta_ephemeris_type": 0,
        "meta_classification_type": "U",
        "meta_norad_cat_id": 35435,
        "meta_element_set_no": 999,
        "meta_rev_at_epoch": 87625,
        "meta_bstar": 0.0017393261,
        "meta_mean_motion_dot": 0.0001274,
        "meta_mean_motion_ddot": 0,
        "tle_line1": "1 35435U 93036AKD 25352.55850108  .00012740  00000+0  17393-2 0  9998",
        "tle_line2": "2 35435  74.0108  92.6132 0007399 188.8212 191.4596 14.78644291876252"
      },
      "geometry": {
        "type": "Point",
        "coordinates": [
          -151.34685992227483,
          71.73820004261157
        ]
      }
    },
    {
      "type": "Feature",
      "properties": {
        "norad_id": 35439,
        "name": "COSMOS 2251 DEB",
        "group": "cosmos-2251-debris",
        "lat": -2.4147104530326735,
        "lon": -57.69185197396247,
        "alt_km": 968.7909474232965,
        "timestamp": "2025-12-20T09:36:02.045209+00:00",
        "meta_object_name": "COSMOS 2251 DEB",
        "meta_object_id": "1993-036AKH",
        "meta_epoch": "2025-12-17T04:00:48.812832",
        "meta_mean_motion": 13.92829249,
        "meta_eccentricity": 0.02424604,
        "meta_inclination": 74.0187,
        "meta_ra_of_asc_node": 127.1529,
        "meta_arg_of_pericenter": 295.4748,
        "meta_mean_anomaly": 245.9503,
        "meta_ephemeris_type": 0,
        "meta_classification_type": "U",
        "meta_norad_cat_id": 35439,
        "meta_element_set_no": 999,
        "meta_rev_at_epoch": 84022,
        "meta_bstar": 0.0013909461,
        "meta_mean_motion_dot": 2.269e-05,
        "meta_mean_motion_ddot": 0,
        "tle_line1": "1 35439U 93036AKH 25351.16723163  .00002269  00000+0  13909-2 0  9992",
        "tle_line2": "2 35439  74.0187 127.1529 0242460 295.4748 245.9503 13.92829249840220"
      },
      "geometry": {
        "type": "Point",
        "coordinates": [
          -57.69185197396247,
          -2.4147104530326735
        ]
      }
    },
    {
      "type": "Feature",
      "properties": {
        "norad_id": 35440,
        "name": "COSMOS 2251 DEB",
        "group": "cosmos-2251-debris",
        "lat": -9.42654863372817,
        "lon": 15.511013445566233,
        "alt_km": 707.0307158862961,
        "timestamp": "2025-12-20T09:36:02.045219+00:00",
        "meta_object_name": "COSMOS 2251 DEB",
        "meta_object_id": "1993-036AKJ",
        "meta_epoch": "2025-12-17T20:15:19.490976",
        "meta_mean_motion": 14.68838958,
        "meta_eccentricity": 0.00695054,
        "meta_inclination": 74.0134,
        "meta_ra_of_asc_node": 197.7346,
        "meta_arg_of_pericenter": 337.3687,
        "meta_mean_anomaly": 22.4422,
        "meta_ephemeris_type": 0,
        "meta_classification_type": "U",
        "meta_norad_cat_id": 35440,
        "meta_element_set_no": 999,
        "meta_rev_at_epoch": 68840,
        "meta_bstar": 0.00030670457,
        "meta_mean_motion_dot": 1.824e-05,
        "meta_mean_motion_ddot": 0,
        "tle_line1": "1 35440U 93036AKJ 25351.84397559  .00001824  00000+0  30670-3 0  9996",
        "tle_line2": "2 35440  74.0134 197.7346 0069505 337.3687  22.4422 14.68838958688408"
      },
      "geometry": {
        "type": "Point",
        "coordinates": [
          15.511013445566233,
          -9.42654863372817
        ]
      }
    },
    {
      "type": "Feature",
      "properties": {
        "norad_id": 35441,
        "name": "COSMOS 2251 DEB",
        "group": "cosmos-2251-debris",
        "lat": -25.523191860235727,
        "lon": -84.29077355841734,
        "alt_km": 713.2961732216891,
        "timestamp": "2025-12-20T09:36:02.045229+00:00",
        "meta_object_name": "COSMOS 2251 DEB",
        "meta_object_id": "1993-036AKK",
        "meta_epoch": "2025-12-15T03:19:30.492768",
        "meta_mean_motion": 14.62637993,
        "meta_eccentricity": 0.00365994,
        "meta_inclination": 74.1346,
        "meta_ra_of_asc_node": 293.5313,
        "meta_arg_of_pericenter": 189.4895,
        "meta_mean_anomaly": 170.5586,
        "meta_ephemeris_type": 0,
        "meta_classification_type": "U",
        "meta_norad_cat_id": 35441,
        "meta_element_set_no": 999,
        "meta_rev_at_epoch": 87465,
        "meta_bstar": 0.00095338273,
        "meta_mean_motion_dot": 4.868e-05,
        "meta_mean_motion_ddot": 0,
        "tle_line1": "1 35441U 93036AKK 25349.13854737  .00004868  00000+0  95338-3 0  9995",
        "tle_line2": "2 35441  74.1346 293.5313 0036599 189.4895 170.5586 14.62637993874658"
      },
      "geometry": {
        "type": "Point",
        "coordinates": [
          -84.29077355841734,
          -25.523191860235727
        ]
      }
    },
    {
      "type": "Feature",
      "properties": {
        "norad_id": 35442,
        "name": "COSMOS 2251 DEB",
        "group": "cosmos-2251-debris",
        "lat": 71.19948917287547,
        "lon": -153.34949994561205,
        "alt_km": 605.3653789528289,
        "timestamp": "2025-12-20T09:36:02.045239+00:00",
        "meta_object_name": "COSMOS 2251 DEB",
        "meta_object_id": "1993-036AKL",
        "meta_epoch": "2025-12-19T23:26:56.412384",
        "meta_mean_motion": 14.84679106,
        "meta_eccentricity": 0.00038,
        "meta_inclination": 74.0274,
        "meta_ra_of_asc_node": 84.771,
        "meta_arg_of_pericenter": 58.8195,
        "meta_mean_anomaly": 301.3356,
        "meta_ephemeris_type": 0,
        "meta_classification_type": "U",
        "meta_norad_cat_id": 35442,
        "meta_element_set_no": 999,
        "meta_rev_at_epoch": 87460,
        "meta_bstar": 0.0012024,
        "meta_mean_motion_dot": 0.00010159,
        "meta_mean_motion_ddot": 0,
        "tle_line1": "1 35442U 93036AKL 25353.97704181  .00010159  00000+0  12024-2 0  9990",
        "tle_line2": "2 35442  74.0274  84.7710 0003800  58.8195 301.3356 14.84679106874600"
      },
      "geometry": {
        "type": "Point",
        "coordinates": [
          -153.34949994561205,
          71.19948917287547
        ]
      }
    },
    {
      "type": "Feature",
      "properties": {
        "norad_id": 35443,
        "name": "COSMOS 2251 DEB",
        "group": "cosmos-2251-debris",
        "lat": 59.79373186976361,
        "lon": 106.49240731338573,
        "alt_km": 521.4506870220393,
        "timestamp": "2025-12-20T09:36:02.045249+00:00",
        "meta_object_name": "COSMOS 2251 DEB",
        "meta_object_id": "1993-036AKM",
        "meta_epoch": "2025-12-19T13:50:47.178816",
        "meta_mean_motion": 14.97233241,
        "meta_eccentricity": 0.007292,
        "meta_inclination": 73.988,
        "meta_ra_of_asc_node": 317.7188,
        "meta_arg_of_pericenter": 97.8759,
        "meta_mean_anomaly": 263.0711,
        "meta_ephemeris_type": 0,
        "meta_classification_type": "U",
        "meta_norad_cat_id": 35443,
        "meta_element_set_no": 999,
        "meta_rev_at_epoch": 86980,
        "meta_bstar": 0.0025283,
        "meta_mean_motion_dot": 0.00031007,
        "meta_mean_motion_ddot": 0,
        "tle_line1": "1 35443U 93036AKM 25353.57693494  .00031007  00000+0  25283-2 0  9997",
        "tle_line2": "2 35443  73.9880 317.7188 0072920  97.8759 263.0711 14.97233241869803"
      },
      "geometry": {
        "type": "Point",
        "coordinates": [
          106.49240731338573,
          59.79373186976361
        ]
      }
    }
  ]
}